ONEWEB-0159             
1 48062U 21025W   25272.28269642 -.00000655  00000+0 -18283-2 0  9998
2 48062  87.9056  12.0372 0002077 102.7750 257.3611 13.13464513219356
ONEWEB-0164             
1 48063U 21025X   25271.65464593  .00000355  00000+0  93741-3 0  9999
2 48063  87.9050  12.1700 0001584  96.6295 263.5015 13.13471700219256
ONEWEB-0167             
1 48064U 21025Y   25272.29199615 -.00000001  00000+0 -37790-4 0  9994
2 48064  87.9044  12.0766 0001926 123.3424 236.7889 13.13468677219321
ONEWEB-0166             
1 48065U 21025Z   25272.23867824 -.00000239  00000+0 -69049-3 0  9997
2 48065  87.9050  12.0383 0001919  97.4382 262.6965 13.13470690219398
ONEWEB-0151             
1 48066U 21025AA  25272.24035436 -.00000537  00000+0 -15058-2 0  9996
2 48066  87.9049  12.0630 0001720 103.1548 256.9773 13.13469794219331
ONEWEB-0170             
1 48067U 21025AB  25271.71559417  .00000127  00000+0  31411-3 0  9993
2 48067  87.9052  12.1734 0001270 106.5800 253.5468 13.13471194219229
ONEWEB-0168             
1 48068U 21025AC  25272.23359318 -.00000265  00000+0 -76060-3 0  9994
2 48068  87.9055  12.0531 0001972 103.1047 257.0303 13.13469898219306
ONEWEB-0173             
1 48069U 21025AD  25272.22512141 -.00000168  00000+0 -49558-3 0  9993
2 48069  87.9054  12.0621 0002066 111.8165 248.3184 13.13468133219545
